GLOBALSTAR M063 [+]     
1 26081U 00008A   24023.16286722 -.00000077  00000+0  76407-4 0  9992
2 26081  51.9983  17.4015 0004671  55.9775  24.8850 11.86149911 96933
GLOBALSTAR M062 [-]     
1 26082U 00008B   24023.53224578 -.00000081  00000+0  12579-3 0  9999
2 26082  51.9833 157.4135 0008174 103.6668 334.2211 12.43426238433095
GLOBALSTAR M060 [-]     
1 26083U 00008C   24023.23521722  .00000004  00000+0  94637-3 0  9997
2 26083  52.0035  46.0115 0003654 165.8741 273.7068 12.17623446 90124
GLOBALSTAR M064 [-]     
1 26084U 00008D   24023.57112227 -.00000061  00000+0  31217-3 0  9990
2 26084  52.0029 121.1759 0002327 145.1343 214.9642 11.88514905106389
GLOBALSTAR M065 [+]     
1 31571U 07020A   24024.17445686 -.00000099  00000+0  25651-4 0  9990
2 31571  51.9922 338.5188 0009646 258.2304 203.9694 12.61961941769311
GLOBALSTAR M069 [+]     
1 31573U 07020C   24023.96129154 -.00000047  00000+0  31927-3 0  9992
2 31573  51.9962 295.1835 0001367  47.5415  33.8839 12.62264979770117
GLOBALSTAR M072 [+]     
1 31574U 07020D   24023.32817781 -.00000069  00000+0  19552-3 0  9997
2 31574  52.0101  32.9151 0000206 238.6557 223.3600 12.62269849768305
GLOBALSTAR M071 [P]     
1 31576U 07020F   24023.90727904 -.00000033  00000+0  39574-3 0  9997
2 31576  52.0079 300.4001 0001654  56.6961  18.7071 12.62265913431294
